NORAD_CAT_ID,OBJECT_NAME,OBJECT_TYPE,EPOCH,MEAN_MOTION,ECCENTRICITY,INCLINATION,RA_OF_ASC_NODE,ARG_OF_PERICENTER,MEAN_ANOMALY,BSTAR,MEAN_MOTION_DOT,MEAN_MOTION_DDOT,TLE_LINE0,TLE_LINE1,TLE_LINE2,SEMIMAJOR_AXIS,PERIOD,APOGEE,PERIGEE,DECAYED
56465.0,STARLINK-6054,PAYLOAD,2024-02-11 14:50:13,14.98331579,0.0002941,70.0007,213.1414,269.5374,90.5448,1.7633e-05,1.17e-06,0.0,0 STARLINK-6054,1 56465U 23064T   24042.61821562  .00000117  00000-0  17633-4 0  9997,2 56465  70.0007 213.1414 0002941 269.5374  90.5448 14.98331579 42837,6950.188,96.107,574.097,570.009,0.0
56465.0,STARLINK-6054,PAYLOAD,2024-02-11 19:38:37,14.98332875,0.0002902,70.0009,212.6367,268.7014,91.3813,3.3622e-05,3.08e-06,0.0,0 STARLINK-6054,1 56465U 23064T   24042.81849409  .00000308  00000-0  33622-4 0  9997,2 56465  70.0009 212.6367 0002902 268.7014  91.3813 14.98332875 43228,6950.184,96.107,574.066,570.032,0.0
56465.0,STARLINK-6054,PAYLOAD,2024-02-11 21:14:45,14.98333198,0.0002913,70.0009,212.4685,269.3418,90.7407,3.5857e-05,3.35e-06,0.0,0 STARLINK-6054,1 56465U 23064T   24042.88525369  .00000335  00000-0  35857-4 0  9992,2 56465  70.0009 212.4685 0002913 269.3418  90.7407 14.98333198 42877,6950.183,96.107,574.073,570.023,0.0
56465.0,STARLINK-6054,PAYLOAD,2024-02-12 14:52:14,14.98328879,0.0002923,70.001,210.6166,271.9697,88.1127,9.1512e-06,1.6e-07,0.0,0 STARLINK-6054,1 56465U 23064T   24043.61961671  .00000016  00000-0  91512-5 0  9991,2 56465  70.0010 210.6166 0002923 271.9697  88.1127 14.98328879 42984,6950.196,96.107,574.093,570.03,0.0
56465.0,STARLINK-6054,PAYLOAD,2024-02-12 19:40:39,14.98329041,0.0002922,70.0011,210.1117,272.3313,87.7511,1.0538e-05,3.3e-07,0.0,0 STARLINK-6054,1 56465U 23064T   24043.81989668  .00000033  00000-0  10538-4 0  9996,2 56465  70.0011 210.1117 0002922 272.3313  87.7511 14.98329041 43373,6950.196,96.107,574.092,570.03,0.0
56465.0,STARLINK-6054,PAYLOAD,2024-02-12 21:16:47,14.98329137,0.0002931,70.0011,209.9434,272.8125,87.2698,1.0443e-05,3.2e-07,0.0,0 STARLINK-6054,1 56465U 23064T   24043.88665658  .00000032  00000-0  10443-4 0  9997,2 56465  70.0011 209.9434 0002931 272.8125  87.2698 14.98329137 43026,6950.196,96.107,574.098,570.023,0.0
56465.0,STARLINK-6054,PAYLOAD,2024-02-13 14:54:15,14.98329352,0.0002952,70.001,208.0917,273.3595,86.7226,-4.9173e-05,-6.8e-06,0.0,0 STARLINK-6054,1 56465U 23064T   24044.62101849 -.00000680  00000-0 -49173-4 0  9990,2 56465  70.0010 208.0917 0002952 273.3595  86.7226 14.98329352 43133,6950.195,96.107,574.112,570.008,0.0
56465.0,STARLINK-6054,PAYLOAD,2024-02-13 19:42:40,14.98331322,0.0002957,70.001,207.5869,275.1215,84.9606,-1.7549e-05,-3.02e-06,0.0,0 STARLINK-6054,1 56465U 23064T   24044.82129645 -.00000302  00000-0 -17549-4 0  9999,2 56465  70.0010 207.5869 0002957 275.1215  84.9606 14.98331322 43522,6950.189,96.107,574.109,569.999,0.0
56465.0,STARLINK-6054,PAYLOAD,2024-02-14 14:56:16,14.98324216,0.0002777,70.0011,205.5683,271.9746,88.1095,9.6519e-05,1.059e-05,0.0,0 STARLINK-6054,1 56465U 23064T   24045.62241681  .00001059  00000-0  96519-4 0  9995,2 56465  70.0011 205.5683 0002777 271.9746  88.1095 14.98324216 43283,6950.211,96.107,574.006,570.146,0.0
56465.0,STARLINK-6054,PAYLOAD,2024-02-14 16:32:24,14.98326716,0.0002581,70.0012,205.4002,267.7705,92.3158,5.1755e-05,5.25e-06,0.0,0 STARLINK-6054,1 56465U 23064T   24045.68917657  .00000525  00000-0  51755-4 0  9994,2 56465  70.0012 205.4002 0002581 267.7705  92.3158 14.98326716 43294,6950.203,96.107,573.862,570.274,0.0
56465.0,STARLINK-6054,PAYLOAD,2024-02-15 03:45:21,14.98331845,0.0002893,70.0014,204.2227,273.563,86.5199,2.2342e-05,1.74e-06,0.0,0 STARLINK-6054,1 56465U 23064T   24046.15649422  .00000174  00000-0  22342-4 0  9999,2 56465  70.0014 204.2227 0002893 273.5630  86.5199 14.98331845 43727,6950.187,96.107,574.063,570.041,0.0
56465.0,STARLINK-6054,PAYLOAD,2024-02-15 14:58:18,14.98326205,0.0002851,70.0013,203.0446,266.2167,93.8666,-4.0419e-05,-5.75e-06,0.0,0 STARLINK-6054,1 56465U 23064T   24046.62381961 -.00000575  00000-0 -40419-4 0  9994,2 56465  70.0013 203.0446 0002851 266.2167  93.8666 14.98326205 43436,6950.205,96.107,574.051,570.088,0.0
56465.0,STARLINK-6054,PAYLOAD,2024-02-15 19:46:42,14.98327159,0.000289,70.0009,202.5387,267.3588,92.724,-1.611e-05,-2.85e-06,0.0,0 STARLINK-6054,1 56465U 23064T   24046.82409858 -.00000285  00000-0 -16110-4 0  9991,2 56465  70.0009 202.5387 0002890 267.3588  92.7240 14.98327159 43469,6950.202,96.107,574.075,570.058,0.0
56465.0,STARLINK-6054,PAYLOAD,2024-02-16 03:47:22,14.9833302,0.0003414,70.0003,201.695,277.7661,82.311,-4.8146e-05,-6.68e-06,0.0,0 STARLINK-6054,1 56465U 23064T   24047.15789484 -.00000668  00000-0 -48146-4 0  9993,2 56465  70.0003 201.6950 0003414 277.7661  82.3110 14.98333020 43879,6950.184,96.107,574.421,569.676,0.0
56465.0,STARLINK-6054,PAYLOAD,2024-02-16 13:24:10,14.98331389,0.0003075,70.0003,200.6854,268.8428,91.2378,-1.266e-06,-1.08e-06,0.0,0 STARLINK-6054,1 56465U 23064T   24047.55845494 -.00000108  00000-0 -12660-5 0  9993,2 56465  70.0003 200.6854 0003075 268.8428  91.2378 14.98331389 43574,6950.189,96.107,574.191,569.916,0.0
56465.0,STARLINK-6054,PAYLOAD,2024-02-16 19:48:42,14.98334029,0.0002899,70.001,200.0139,267.8855,92.1972,6.0169e-05,6.25e-06,0.0,0 STARLINK-6054,1 56465U 23064T   24047.82549143  .00000625  00000-0  60169-4 0  9993,2 56465  70.0010 200.0139 0002899 267.8855  92.1972 14.98334029 43617,6950.18,96.107,574.06,570.031,0.0
56465.0,STARLINK-6054,PAYLOAD,2024-02-17 03:49:23,14.98328356,0.0002901,70.0009,199.1714,271.5022,88.5805,-6.54e-06,-1.71e-06,0.0,0 STARLINK-6054,1 56465U 23064T   24048.15929642 -.00000171  00000-0 -65400-5 0  9998,2 56465  70.0009 199.1714 0002901 271.5022  88.5805 14.98328356 44020,6950.198,96.107,574.079,570.047,0.0
56465.0,STARLINK-6054,PAYLOAD,2024-02-17 13:26:11,14.98323603,0.0003032,70.0008,198.161,268.1653,91.9159,1.4821e-05,8.4e-07,0.0,0 STARLINK-6054,1 56465U 23064T   24048.55985913  .00000084  00000-0  14821-4 0  9996,2 56465  70.0008 198.1610 0003032 268.1653  91.9159 14.98323603 43727,6950.213,96.107,574.185,569.97,0.0
56465.0,STARLINK-6054,PAYLOAD,2024-02-17 19:50:43,14.98328373,0.000306,70.001,197.4877,267.9266,92.1542,4.1632e-05,4.04e-06,0.0,0 STARLINK-6054,1 56465U 23064T   24048.82689584  .00000404  00000-0  41632-4 0  9997,2 56465  70.0010 197.4877 0003060 267.9266  92.1542 14.98328373 43767,6950.198,96.107,574.19,569.936,0.0
56465.0,STARLINK-6054,PAYLOAD,2024-02-18 11:52:04,14.9833445,0.0002921,70.0013,195.8043,269.9659,90.1165,2.3771e-05,1.91e-06,0.0,0 STARLINK-6054,1 56465U 23064T   24049.49449191  .00000191  00000-0  23771-4 0  9996,2 56465  70.0013 195.8043 0002921 269.9659  90.1165 14.98334450 44224,6950.179,96.107,574.074,570.014,0.0
56465.0,STARLINK-6054,PAYLOAD,2024-02-18 15:04:20,14.98334388,0.0002925,70.0013,195.4678,269.9727,90.1097,2.3272e-05,1.85e-06,0.0,0 STARLINK-6054,1 56465U 23064T   24049.62801159  .00000185  00000-0  23272-4 0  9996,2 56465  70.0013 195.4678 0002925 269.9727  90.1097 14.98334388 43889,6950.179,96.107,574.077,570.011,0.0
56465.0,STARLINK-6054,PAYLOAD,2024-02-18 19:52:43,14.98339101,0.0002999,70.0011,194.9634,269.2981,90.7834,4.1311e-05,4e-06,0.0,0 STARLINK-6054,1 56465U 23064T   24049.82828695  .00000400  00000-0  41311-4 0  9996,2 56465  70.0011 194.9634 0002999 269.2981  90.7834 14.98339101 43916,6950.165,96.106,574.114,569.945,0.0
56465.0,STARLINK-6054,PAYLOAD,2024-02-19 11:54:06,14.98311305,0.0002919,70.0017,193.2815,267.0384,93.0441,0.00011407,1.268e-05,0.0,0 STARLINK-6054,1 56465U 23064T   24050.49590298  .00001268  00000-0  11407-3 0  9991,2 56465  70.0017 193.2815 0002919 267.0384  93.0441 14.98311305 44377,6950.251,96.108,574.144,570.087,0.0
56465.0,STARLINK-6054,PAYLOAD,2024-02-19 13:30:14,14.982968,0.0003021,70.0016,193.1132,265.2127,94.8687,0.00035852,4.184e-05,0.0,0 STARLINK-6054,1 56465U 23064T   24050.56266680  .00004184  00000-0  35852-3 0  9994,2 56465  70.0016 193.1132 0003021 265.2127  94.8687 14.98296800 44022,6950.296,96.109,574.26,570.061,0.0
56465.0,STARLINK-6054,PAYLOAD,2024-02-19 19:54:46,14.98321287,0.0002538,70.002,192.4403,253.059,107.0291,-1.698e-05,-2.95e-06,0.0,0 STARLINK-6054,1 56465U 23064T   24050.82970152 -.00000295  00000-0 -16980-4 0  9992,2 56465  70.0020 192.4403 0002538 253.0590 107.0291 14.98321287 44421,6950.22,96.108,573.849,570.321,0.0
56465.0,STARLINK-6054,PAYLOAD,2024-02-20 11:56:05,14.98335791,0.0002885,70.0014,190.757,264.0798,96.0033,2.0779e-05,1.55e-06,0.0,0 STARLINK-6054,1 56465U 23064T   24051.49729071  .00000155  00000-0  20779-4 0  9992,2 56465  70.0014 190.7570 0002885 264.0798  96.0033 14.98335791 44524,6950.175,96.107,574.045,570.035,0.0
56465.0,STARLINK-6054,PAYLOAD,2024-02-20 15:08:22,14.98334205,0.0002879,70.0016,190.4199,266.3638,93.7191,2.8452e-05,2.47e-06,0.0,0 STARLINK-6054,1 56465U 23064T   24051.63081125  .00000247  00000-0  28452-4 0  9997,2 56465  70.0016 190.4199 0002879 266.3638  93.7191 14.98334205 44181,6950.18,96.107,574.046,570.044,0.0
56465.0,STARLINK-6054,PAYLOAD,2024-02-20 18:20:38,14.98336637,0.0002891,70.0014,190.0832,267.7927,92.2901,2.6197e-05,2.2e-06,0.0,0 STARLINK-6054,1 56465U 23064T   24051.76432938  .00000220  00000-0  26197-4 0  9998,2 56465  70.0014 190.0832 0002891 267.7927  92.2901 14.98336637 44206,6950.172,96.107,574.047,570.028,0.0
56465.0,STARLINK-6054,PAYLOAD,2024-02-21 11:58:07,14.98325559,0.0002861,70.0012,188.2313,267.7091,92.374,7.4936e-05,8.01e-06,0.0,0 STARLINK-6054,1 56465U 23064T   24052.49869399  .00000801  00000-0  74936-4 0  9993,2 56465  70.0012 188.2313 0002861 267.7091  92.3740 14.98325559 44670,6950.207,96.107,574.06,570.083,0.0
56465.0,STARLINK-6054,PAYLOAD,2024-02-21 15:10:23,14.98326137,0.0002949,70.001,187.8945,269.5962,90.4859,4.9596e-05,4.99e-06,0.0,0 STARLINK-6054,1 56465U 23064T   24052.63221463  .00000499  00000-0  49596-4 0  9990,2 56465  70.0010 187.8945 0002949 269.5962  90.4859 14.98326137 44334,6950.205,96.107,574.119,570.02,0.0
